[{"OBJECT_NAME":"ICEYE-X52","OBJECT_ID":"2025-135AW","EPOCH":"2026-03-09T23:17:36.118752","MEAN_MOTION":14.93134206,"ECCENTRICITY":9.039e-5,"INCLINATION":97.7612,"RA_OF_ASC_NODE":184.413,"ARG_OF_PERICENTER":329.011,"MEAN_ANOMALY":31.1056,"EPHEMERIS_TYPE":0,"CLASSIFICATION_TYPE":"U","NORAD_CAT_ID":64572,"ELEMENT_SET_NO":999,"REV_AT_EPOCH":3907,"BSTAR":0.00030081432,"MEAN_MOTION_DOT":3.081e-5,"MEAN_MOTION_DDOT":0},{"OBJECT_NAME":"PSLV DEB","OBJECT_ID":"2001-049NS","EPOCH":"2026-03-09T05:19:14.224224","MEAN_MOTION":14.71401718,"ECCENTRICITY":0.01105498,"INCLINATION":97.2875,"RA_OF_ASC_NODE":339.6277,"ARG_OF_PERICENTER":290.8563,"MEAN_ANOMALY":68.0836,"EPHEMERIS_TYPE":0,"CLASSIFICATION_TYPE":"U","NORAD_CAT_ID":27655,"ELEMENT_SET_NO":999,"REV_AT_EPOCH":24688,"BSTAR":0.0017183831,"MEAN_MOTION_DOT":0.00011673,"MEAN_MOTION_DDOT":0}]
